{"type": "FeatureCollection", "features": [ {"type": "Feature", "properties": {"norad_id": 59598, "name": "GSAT0225 (GALILEO 29)", "group": "gnss", "lat": -29.00690957116079, "lon": -50.793715481942805, "alt_km": 23221.372217904627, "timestamp": "2025-12-09T16:56:36.819012+00:00", "meta": {"OBJECT_NAME": "GSAT0225 (GALILEO 29)", "OBJECT_ID": "2024-079A", "EPOCH": "2025-12-07T13:01:48.128160", "MEAN_MOTION": 1.70474573, "ECCENTRICITY": 0.0002046, "INCLINATION": 54.9986, "RA_OF_ASC_NODE": 106.4402, "ARG_OF_PERICENTER": 173.6326, "MEAN_ANOMALY": 155.0404, "EPHEMERIS_TYPE": 0, "CLASSIFICATION_TYPE": "U", "NORAD_CAT_ID": 59598, "ELEMENT_SET_NO": 999, "REV_AT_EPOCH": 1004, "BSTAR": 0, "MEAN_MOTION_DOT": 7e-08, "MEAN_MOTION_DDOT": 0}, "tle": {"line1": "1 59598U 24079A   25341.54291815  .00000007  00000+0  00000+0 0  9993", "line2": "2 59598  54.9986 106.4402 0002046 173.6326 155.0404  1.70474573 10048"}}, "geometry": {"type": "Point", "coordinates": [-50.793715481942805, -29.00690957116079]}}, {"type": "Feature", "properties": {"norad_id": 59600, "name": "GSAT0227 (GALILEO 30)", "group": "gnss", "lat": 52.73323671350425, "lon": -140.5750211862665, "alt_km": 23206.350588514953, "timestamp": "2025-12-09T16:56:36.819023+00:00", "meta": {"OBJECT_NAME": "GSAT0227 (GALILEO 30)", "OBJECT_ID": "2024-079C", "EPOCH": "2025-12-08T08:44:01.424832", "MEAN_MOTION": 1.70474656, "ECCENTRICITY": 0.00032972, "INCLINATION": 54.9942, "RA_OF_ASC_NODE": 106.4167, "ARG_OF_PERICENTER": 114.0276, "MEAN_ANOMALY": 245.9681, "EPHEMERIS_TYPE": 0, "CLASSIFICATION_TYPE": "U", "NORAD_CAT_ID": 59600, "ELEMENT_SET_NO": 999, "REV_AT_EPOCH": 1011, "BSTAR": 0, "MEAN_MOTION_DOT": 8e-08, "MEAN_MOTION_DDOT": 0}, "tle": {"line1": "1 59600U 24079C   25342.36390538  .00000008  00000+0  00000+0 0  9991", "line2": "2 59600  54.9942 106.4167 0003297 114.0276 245.9681  1.70474656 10110"}}, "geometry": {"type": "Point", "coordinates": [-140.5750211862665, 52.73323671350425]}}, {"type": "Feature", "properties": {"norad_id": 61182, "name": "GSAT0232 (GALILEO 32)", "group": "gnss", "lat": -46.41393090393319, "lon": 179.72872018595498, "alt_km": 23227.08414094974, "timestamp": "2025-12-09T16:56:36.819038+00:00", "meta": {"OBJECT_NAME": "GSAT0232 (GALILEO 32)", "OBJECT_ID": "2024-167A", "EPOCH": "2025-12-08T22:09:29.829888", "MEAN_MOTION": 1.70473333, "ECCENTRICITY": 0.000203, "INCLINATION": 55.2421, "RA_OF_ASC_NODE": 226.5356, "ARG_OF_PERICENTER": 212.642, "MEAN_ANOMALY": 325.1995, "EPHEMERIS_TYPE": 0, "CLASSIFICATION_TYPE": "U", "NORAD_CAT_ID": 61182, "ELEMENT_SET_NO": 999, "REV_AT_EPOCH": 763, "BSTAR": 0, "MEAN_MOTION_DOT": 1.4e-07, "MEAN_MOTION_DDOT": 0}, "tle": {"line1": "1 61182U 24167A   25342.92326192  .00000014  00000+0  00000+0 0  9991", "line2": "2 61182  55.2421 226.5356 0002030 212.6420 325.1995  1.70473333  7631"}}, "geometry": {"type": "Point", "coordinates": [179.72872018595498, -46.41393090393319]}}, {"type": "Feature", "properties": {"norad_id": 61183, "name": "GSAT0226 (GALILEO 31)", "group": "gnss", "lat": 39.53710752945057, "lon": -98.53251352574739, "alt_km": 23216.580031107813, "timestamp": "2025-12-09T16:56:36.819049+00:00", "meta": {"OBJECT_NAME": "GSAT0226 (GALILEO 31)", "OBJECT_ID": "2024-167B", "EPOCH": "2025-12-09T06:58:53.079168", "MEAN_MOTION": 1.70473461, "ECCENTRICITY": 8.01e-05, "INCLINATION": 55.2404, "RA_OF_ASC_NODE": 226.5307, "ARG_OF_PERICENTER": 119.131, "MEAN_ANOMALY": 36.9899, "EPHEMERIS_TYPE": 0, "CLASSIFICATION_TYPE": "U", "NORAD_CAT_ID": 61183, "ELEMENT_SET_NO": 999, "REV_AT_EPOCH": 761, "BSTAR": 0, "MEAN_MOTION_DOT": 1.2e-07, "MEAN_MOTION_DDOT": 0}, "tle": {"line1": "1 61183U 24167B   25343.29089212  .00000012  00000+0  00000+0 0  9990", "line2": "2 61183  55.2404 226.5307 0000801 119.1310  36.9899  1.70473461  7612"}}, "geometry": {"type": "Point", "coordinates": [-98.53251352574739, 39.53710752945057]}}, {"type": "Feature", "properties": {"norad_id": 61186, "name": "BEIDOU-3 M25 (C47)", "group": "gnss", "lat": -32.234544978266925, "lon": 155.38099884250616, "alt_km": 21528.34611169714, "timestamp": "2025-12-09T16:56:36.819063+00:00", "meta": {"OBJECT_NAME": "BEIDOU-3 M25 (C47)", "OBJECT_ID": "2024-168B", "EPOCH": "2025-12-09T12:38:32.089056", "MEAN_MOTION": 1.86229941, "ECCENTRICITY": 0.0005432, "INCLINATION": 54.6447, "RA_OF_ASC_NODE": 308.8306, "ARG_OF_PERICENTER": 296.174, "MEAN_ANOMALY": 164.5169, "EPHEMERIS_TYPE": 0, "CLASSIFICATION_TYPE": "U", "NORAD_CAT_ID": 61186, "ELEMENT_SET_NO": 999, "REV_AT_EPOCH": 825, "BSTAR": 0, "MEAN_MOTION_DOT": -7.8e-07, "MEAN_MOTION_DDOT": 0}, "tle": {"line1": "1 61186U 24168B   25343.52676029 -.00000078  00000+0  00000+0 0  9991", "line2": "2 61186  54.6447 308.8306 0005432 296.1740 164.5169  1.86229941  8254"}}, "geometry": {"type": "Point", "coordinates": [155.38099884250616, -32.234544978266925]}}, {"type": "Feature", "properties": {"norad_id": 61187, "name": "BEIDOU-3 M27 (C49)", "group": "gnss", "lat": -3.4160408599325227, "lon": -53.6382568831833, "alt_km": 21522.804591545755, "timestamp": "2025-12-09T16:56:36.819074+00:00", "meta": {"OBJECT_NAME": "BEIDOU-3 M27 (C49)", "OBJECT_ID": "2024-168C", "EPOCH": "2025-12-09T06:37:59.333088", "MEAN_MOTION": 1.86230065, "ECCENTRICITY": 0.0002332, "INCLINATION": 54.6404, "RA_OF_ASC_NODE": 308.8229, "ARG_OF_PERICENTER": 334.2122, "MEAN_ANOMALY": 93.5537, "EPHEMERIS_TYPE": 0, "CLASSIFICATION_TYPE": "U", "NORAD_CAT_ID": 61187, "ELEMENT_SET_NO": 999, "REV_AT_EPOCH": 572, "BSTAR": 0, "MEAN_MOTION_DOT": -7.6e-07, "MEAN_MOTION_DDOT": 0}, "tle": {"line1": "1 61187U 24168C   25343.27638117 -.00000076  00000+0  00000+0 0  9998", "line2": "2 61187  54.6404 308.8229 0002332 334.2122  93.5537  1.86230065  5724"}}, "geometry": {"type": "Point", "coordinates": [-53.6382568831833, -3.4160408599325227]}}, {"type": "Feature", "properties": {"norad_id": 62339, "name": "GPS BIII-7  (PRN 01)", "group": "gnss", "lat": -38.77240093241646, "lon": -163.78660537213133, "alt_km": 20199.28549789026, "timestamp": "2025-12-09T16:56:36.819100+00:00", "meta": {"OBJECT_NAME": "GPS BIII-7  (PRN 01)", "OBJECT_ID": "2024-242A", "EPOCH": "2025-12-07T21:14:38.700960", "MEAN_MOTION": 2.00567469, "ECCENTRICITY": 0.00119344, "INCLINATION": 54.9247, "RA_OF_ASC_NODE": 341.9365, "ARG_OF_PERICENTER": 343.8064, "MEAN_ANOMALY": 11.4848, "EPHEMERIS_TYPE": 0, "CLASSIFICATION_TYPE": "U", "NORAD_CAT_ID": 62339, "ELEMENT_SET_NO": 999, "REV_AT_EPOCH": 741, "BSTAR": 0, "MEAN_MOTION_DOT": -8.7e-07, "MEAN_MOTION_DDOT": 0}, "tle": {"line1": "1 62339U 24242A   25341.88517015 -.00000087  00000+0  00000+0 0  9991", "line2": "2 62339  54.9247 341.9365 0011934 343.8064  11.4848  2.00567469  7410"}}, "geometry": {"type": "Point", "coordinates": [-163.78660537213133, -38.77240093241646]}}, {"type": "Feature", "properties": {"norad_id": 62850, "name": "NVS-02 (IRNSS-1K)", "group": "gnss", "lat": -17.188422792477898, "lon": -157.51898463918798, "alt_km": 24754.538078054404, "timestamp": "2025-12-09T16:56:36.819112+00:00", "meta": {"OBJECT_NAME": "NVS-02 (IRNSS-1K)", "OBJECT_ID": "2025-020A", "EPOCH": "2025-12-09T07:57:09.294048", "MEAN_MOTION": 2.17590949, "ECCENTRICITY": 0.7347758, "INCLINATION": 20.9924, "RA_OF_ASC_NODE": 328.894, "ARG_OF_PERICENTER": 24.0194, "MEAN_ANOMALY": 357.4627, "EPHEMERIS_TYPE": 0, "CLASSIFICATION_TYPE": "U", "NORAD_CAT_ID": 62850, "ELEMENT_SET_NO": 999, "REV_AT_EPOCH": 684, "BSTAR": 0.00037441, "MEAN_MOTION_DOT": 2.38e-06, "MEAN_MOTION_DDOT": 0}, "tle": {"line1": "1 62850U 25020A   25343.33135757  .00000238  00000+0  37441-3 0  9995", "line2": "2 62850  20.9924 328.8940 7347758  24.0194 357.4627  2.17590949  6842"}}, "geometry": {"type": "Point", "coordinates": [-157.51898463918798, -17.188422792477898]}}, {"type": "Feature", "properties": {"norad_id": 63130, "name": "COSMOS 2584 (704K)", "group": "gnss", "lat": 57.32825534118432, "lon": -147.40834587594864, "alt_km": 19128.206015134598, "timestamp": "2025-12-09T16:56:36.819126+00:00", "meta": {"OBJECT_NAME": "COSMOS 2584 (704K)", "OBJECT_ID": "2025-042A", "EPOCH": "2025-12-08T03:39:29.178720", "MEAN_MOTION": 2.13102925, "ECCENTRICITY": 0.0007602, "INCLINATION": 64.9737, "RA_OF_ASC_NODE": 79.3022, "ARG_OF_PERICENTER": 215.9611, "MEAN_ANOMALY": 144.0025, "EPHEMERIS_TYPE": 0, "CLASSIFICATION_TYPE": "U", "NORAD_CAT_ID": 63130, "ELEMENT_SET_NO": 999, "REV_AT_EPOCH": 597, "BSTAR": 0, "MEAN_MOTION_DOT": -1.2e-07, "MEAN_MOTION_DDOT": 0}, "tle": {"line1": "1 63130U 25042A   25342.15242105 -.00000012  00000+0  00000+0 0  9994", "line2": "2 63130  64.9737  79.3022 0007602 215.9611 144.0025  2.13102925  5976"}}, "geometry": {"type": "Point", "coordinates": [-147.40834587594864, 57.32825534118432]}}, {"type": "Feature", "properties": {"norad_id": 64202, "name": "GPS BIII-8  (PRN 21)", "group": "gnss", "lat": 45.05333357761915, "lon": 83.10151727032503, "alt_km": 20182.51913007937, "timestamp": "2025-12-09T16:56:36.819138+00:00", "meta": {"OBJECT_NAME": "GPS BIII-8  (PRN 21)", "OBJECT_ID": "2025-116A", "EPOCH": "2025-12-09T02:55:25.286016", "MEAN_MOTION": 2.00558368, "ECCENTRICITY": 0.00052634, "INCLINATION": 55.1032, "RA_OF_ASC_NODE": 38.7868, "ARG_OF_PERICENTER": 307.5072, "MEAN_ANOMALY": 50.3343, "EPHEMERIS_TYPE": 0, "CLASSIFICATION_TYPE": "U", "NORAD_CAT_ID": 64202, "ELEMENT_SET_NO": 999, "REV_AT_EPOCH": 405, "BSTAR": 0, "MEAN_MOTION_DOT": -8.4e-07, "MEAN_MOTION_DDOT": 0}, "tle": {"line1": "1 64202U 25116A   25343.12182044 -.00000084  00000+0  00000+0 0  9999", "line2": "2 64202  55.1032  38.7868 0005263 307.5072  50.3343  2.00558368  4056"}}, "geometry": {"type": "Point", "coordinates": [83.10151727032503, 45.05333357761915]}}]}